{
  "norad_id": 66861,
  "name": "STARLINK-35991",
  "history": [
    {
      "epoch": "2026-03-28T16:23:00.819168Z",
      "apogee_km": 483.54453045588343,
      "perigee_km": 482.36634366259204,
      "latitude_deg": -5.512719622653272e-06,
      "longitude_deg": 164.06109614232756,
      "height_km": 483.06904097075017,
      "semi_major_axis_km": 6861.092437059237,
      "eccentricity": 8.586e-05,
      "inclination_deg": 42.9977,
      "raan_deg": 235.9141,
      "arg_perigee_deg": 125.1619,
      "mean_anomaly_deg": 234.9313,
      "mean_motion_rev_day": 15.27611279
    }
  ]
}